STARLINK-1554           
1 46055U 20055AE  26068.55436788  .00011659  00000+0  40484-3 0  9994
2 46055  53.1583 114.6651 0001418  88.5920 271.5243 15.30224882309053
TOMORROW-S2             
1 60485U 24149T   26068.75188364  .00008133  00000+0  27683-3 0  9990
2 60485  97.3857 150.0385 0001648 234.3331 125.7757 15.30674935 86869
